[{"OBJECT_NAME":"KHALIFASAT","OBJECT_ID":"2018-084F","EPOCH":"2026-03-09T22:37:07.705056","MEAN_MOTION":15.0097364,"ECCENTRICITY":0.00062701,"INCLINATION":98.0864,"RA_OF_ASC_NODE":247.4233,"ARG_OF_PERICENTER":83.8573,"MEAN_ANOMALY":276.3364,"EPHEMERIS_TYPE":0,"CLASSIFICATION_TYPE":"U","NORAD_CAT_ID":43676,"ELEMENT_SET_NO":999,"REV_AT_EPOCH":40088,"BSTAR":0.00043724412,"MEAN_MOTION_DOT":5.516e-5,"MEAN_MOTION_DDOT":0},{"OBJECT_NAME":"STARLINK-5484","OBJECT_ID":"2023-021A","EPOCH":"2026-03-09T19:21:48.546432","MEAN_MOTION":14.9832984,"ECCENTRICITY":0.0003305,"INCLINATION":70.0004,"RA_OF_ASC_NODE":204.2441,"ARG_OF_PERICENTER":268.9762,"MEAN_ANOMALY":91.1018,"EPHEMERIS_TYPE":0,"CLASSIFICATION_TYPE":"U","NORAD_CAT_ID":55628,"ELEMENT_SET_NO":999,"REV_AT_EPOCH":16831,"BSTAR":0.00021094722,"MEAN_MOTION_DOT":2.425e-5,"MEAN_MOTION_DDOT":0}]
